CUTE-1 (CO-55)          
1 27844U 03031E   21048.74347431  .00000051  00000-0  42362-4 0  9997
2 27844  98.6826  58.7592 0010876  68.2838 291.9497 14.22288571914969
CUBESAT XI-IV (CO-57)   
1 27848U 03031J   21048.84190044  .00000028  00000-0  32558-4 0  9998
2 27848  98.6887  59.4242 0010837  79.7679 280.4720 14.21868240914819
CUBESAT XI-V            
1 28895U 05043F   21049.35706260  .00000133  00000-0  34503-4 0  9995
2 28895  98.0386 185.3366 0015982 222.0415 137.9562 14.63865758816811
CUTE-1.7+APD II (CO-65) 
1 32785U 08021C   21049.42905515  .00000273  00000-0  34900-4 0  9995
2 32785  97.5992  32.9822 0014024  42.7914 317.4393 14.88633318694534
AAUSAT-II               
1 32788U 08021F   21049.45813298  .00000625  00000-0  61470-4 0  9990
2 32788  97.5002  49.1517 0010521 314.9863  45.0505 14.95391258696178
DELFI-C3 (DO-64)        
1 32789U 08021G   21048.90359637  .00001447  00000-0  96582-4 0  9997
2 32789  97.3914  88.8193 0011845 185.9367 174.1724 15.08497226698800
SEEDS II (CO-66)        
1 32791U 08021J   21048.59776138  .00000398  00000-0  45309-4 0  9999
2 32791  97.5613  38.2024 0013522  12.3422 347.8125 14.91278165694992
SWISSCUBE               
1 35932U 09051B   21049.50902763  .00000122  00000-0  38590-4 0  9999
2 35932  98.6075 245.7352 0008683  92.6085 267.6106 14.56488983605681
BEESAT-1                
1 35933U 09051C   21049.47957114  .00000100  00000-0  33587-4 0  9993
2 35933  98.6050 247.5554 0006852 103.5975 256.5985 14.56552716605795
ITUPSAT1                
1 35935U 09051E   21048.79444606  .00000085  00000-0  30721-4 0  9995
2 35935  98.6155 247.0094 0009161 106.4739 253.7465 14.55689514605364
TISAT 1                 
1 36799U 10035E   21049.45222223  .00000549  00000-0  60800-4 0  9997
2 36799  98.2041 235.4477 0011097 240.9263 119.0843 14.91603241575796
M-CUBED & EXP-1 PRIME   
1 37855U 11061F   21049.08373994  .00001269  00000-0  68815-4 0  9996
2 37855 101.7252 270.5878 0168304  65.6145 296.2530 15.07199806508662
AEROCUBE 4.5A           
1 38767U 12048K   21049.40307695  .00000275  00000-0  37487-4 0  9993
2 38767  64.6658 187.1549 0139597  46.8106 314.4568 14.92585175 78500
AEROCUBE 4.5B           
1 38768U 12048L   21048.73360530  .00000436  00000-0  46866-4 0  9996
2 38768  64.6671 153.3845 0130901  41.3697 319.7240 14.96370897 78574
STRAND-1                
1 39090U 13009E   21049.53705103  .00000007  00000-0  17436-4 0  9996
2 39090  98.4362 254.4719 0008011 273.1882  86.8387 14.35168685418008
SOMP                    
1 39134U 13015E   21048.81680350  .00002209  00000-0  10511-3 0  9990
2 39134  64.8632 201.3603 0008931 222.1440 137.9002 15.22000133433001
BEESAT-3                
1 39135U 13015F   21049.42409029  .00001441  00000-0  78114-4 0  9992
2 39135  64.8648 226.6531 0012153 199.7715 160.2942 15.18921157432952
BEESAT-2                
1 39136U 13015G   21048.77986598  .00001341  00000-0  74283-4 0  9993
2 39136  64.8734 234.6406 0027982 259.3186 100.4789 15.18305060432347
NEE-01 PEGASO           
1 39151U 13018B   21049.52747865  .00000158  00000-0  27677-4 0  9999
2 39151  97.9743 152.7373 0017464  27.8201 332.3941 14.80286536422084
ESTCUBE 1               
1 39161U 13021C   21049.22347987  .00000165  00000-0  33692-4 0  9994
2 39161  97.9460 133.1244 0009485 166.7338 193.4121 14.72424991418204
POPACS 1                
1 39268U 13055D   21048.38018831  .00002877  00000-0  77743-4 0  9995
2 39268  81.0011  36.8277 0607409 213.5185 142.6162 14.41471637383256
POPACS 2                
1 39269U 13055E   21048.78006530  .00003345  00000-0  95614-4 0  9991
2 39269  81.0120  80.2976 0670616 326.1766  29.8274 14.27050000380958
POPACS 3                
1 39270U 13055F   21048.86866113  .00001693  00000-0  50913-4 0  9990
2 39270  81.0143 105.3531 0706344  37.7055 327.1511 14.17910244359896
ZACUBE-1 (TSHEPISOSAT)  
1 39417U 13066B   21049.44157721  .00000196  00000-0  30845-4 0  9997
2 39417  97.5834  40.0064 0058381 189.8950 170.1119 14.81429048391454
WNISAT-1                
1 39423U 13066H   21049.27528904  .00000053  00000-0  20368-4 0  9991
2 39423  97.8016 319.9623 0174093 208.7022 150.4501 14.53185499384125
TRITON-1                
1 39427U 13066M   21049.32337547  .00000291  00000-0  54040-4 0  9990
2 39427  97.7610   3.0779 0113886  12.5443 347.8555 14.68152913387936
GOMX-1                  
1 39430U 13066Q   21049.38577012  .00000174  00000-0  39949-4 0  9994
2 39430  97.8108 339.3201 0151674 129.5578 231.9140 14.59535006385673
CUBEBUG-2 (LO-74)       
1 39440U 13066AA  21049.35817012  .00000210  00000-0  36252-4 0  9994
2 39440  97.6619  24.6856 0078433 261.9019  97.3287 14.76163945390053
NEE-02 KRYSAOR          
1 39441U 13066AB  21049.40306962  .00000150  00000-0  28652-4 0  9996
2 39441  97.6709  22.1208 0080041 272.2881  86.9165 14.75125143389827
FUNCUBE-1 (AO-73)       
1 39444U 13066AE  21049.43036249  .00000272  00000-0  39451-4 0  9994
2 39444  97.5751  42.3321 0057690 180.8661 179.2463 14.82317112390398
UWE-3                   
1 39446U 13066AG  21048.65523778  .00000197  00000-0  32734-4 0  9990
2 39446  97.6244  31.0664 0068572 229.2229 130.3020 14.78697346388807
AEROCUBE 5A             
1 39465U 13072D   21048.83456953  .00003628  00000-0  29447-3 0  9996
2 39465 120.4941 333.6473 0261929 134.8783 227.3857 14.79515600 77637
AEROCUBE 5B             
1 39466U 13072E   21048.66820886  .00008325  00000-0  53522-3 0  9998
2 39466 120.4710  23.3966 0232302 145.5686 216.0663 14.89917636 78060
BRITE-CA1 (TORONTO)     
1 40020U 14033L   21049.35570831  .00000111  00000-0  27180-4 0  9990
2 40020  97.7331 229.5403 0087472   8.8783 351.3945 14.66708171356808
DUCHIFAT-1              
1 40021U 14033M   21048.49633189  .00000593  00000-0  65494-4 0  9995
2 40021  97.9630 347.5064 0012248 193.8640 166.2243 14.91182401362400
NANOSATC-BR1            
1 40024U 14033Q   21048.79314189  .00000290  00000-0  35729-4 0  9999
2 40024  97.9439 343.3310 0011506 197.8469 162.2346 14.90306294361773
QB50P1                  
1 40025U 14033R   21048.29649170  .00000294  00000-0  36976-4 0  9995
2 40025  97.9277 338.7230 0011584 208.4446 151.6140 14.89330105361537
QB50P2                  
1 40032U 14033Y   21049.29826300  .00000255  00000-0  33201-4 0  9991
2 40032  97.9133 336.6161 0011122 201.5938 158.4811 14.88846701362088
PERSEUS-M2              
1 40037U 14033AD  21049.48105324  .00000122  00000-0  19969-4 0  9991
2 40037  97.8910 329.9669 0013354 221.4491 138.5713 14.86627132361719
PERSEUS-M1              
1 40039U 14033AF  21049.28405312  .00000123  00000-0  20198-4 0  9998
2 40039  97.8859 328.2674 0013217 220.4111 139.6123 14.86247908361599
POLYITAN-1              
1 40042U 14033AJ  21049.47439776  .00000429  00000-0  51483-4 0  9994
2 40042  97.9368 340.6096 0013985 195.9507 164.1271 14.89116944362116
TIGRISAT                
1 40043U 14033AK  21048.81843852  .00000130  00000-0  26505-4 0  9992
2 40043  97.6836 258.8377 0058477 285.7684  73.7082 14.74479430358201
AEROCUBE 6A             
1 40045U 14033AM  21049.08384536  .00000201  00000-0  36071-4 0  9991
2 40045  97.7082 265.7822 0056481 275.1037  84.3728 14.75737233358571
AEROCUBE 6B             
1 40046U 14033AN  21049.36482113  .00000267  00000-0  45471-4 0  9999
2 40046  97.6981 265.0317 0055454 273.0213  86.4652 14.75747569358755
UKUBE-1                 
1 40074U 14037F   21049.41309475  .00000191  00000-0  29830-4 0  9996
2 40074  98.4413 258.2991 0005253  56.0911 304.0799 14.84455199358243
BRITE-PL2 (HEWELIUSZ)   
1 40119U 14049B   21049.53838961  .00000095  00000-0  17601-4 0  9995
2 40119  97.8879 145.2959 0017951  29.2951 330.9267 14.84601520352293
FIREBIRD 4              
1 40378U 15003C   21049.27450919  .00004032  00000-0  15156-3 0  9994
2 40378  99.0829 165.8996 0119845 211.6133 147.7861 15.21484718334678
GRIFEX                  
1 40379U 15003D   21049.53762994  .00002022  00000-0  86224-4 0  9995
2 40379  99.0820 156.5246 0129340 240.8331 117.9906 15.17374353334150
CP10 (EXOCUBE)          
1 40380U 15003E   21048.49726768  .00001186  00000-0  55335-4 0  9999
2 40380  99.0863 150.1747 0134608 261.9934  96.6001 15.15155649333646
AEROCUBE 8A             
1 40659U 15025J   21049.52730216  .00034875  00000-0  25443-3 0  9997
2 40659  55.0105 226.3981 0082187  99.8337 261.1996 15.68435352 82004
AEROCUBE 8B             
1 40660U 15025K   21049.49584877  .00036846  00000-0  26245-3 0  9996
2 40660  55.0074 223.6085 0080709 102.3193 258.6899 15.69100765 82027
TIANWANG 1C (TW-1C)     
1 40926U 15051B   21049.43922623  .00503019  11976-3  76624-3 0  9993
2 40926  97.0322 111.8806 0004251 215.2594 272.4278 16.04472439305764
TIANWANG 1A (TW-1A)     
1 40928U 15051D   21049.52010928  .00004165  00000-0  91413-4 0  9996
2 40928  97.0890  77.3056 0010253  20.4617 137.0449 15.44541062303328
EXACTVIEW 9             
1 40936U 15052G   21049.43038844  .00000797  00000-0  22198-4 0  9994
2 40936   6.0046  26.2290 0010242 146.9793 213.0975 14.76654350291582
AEROCUBE 5C             
1 40965U 15058B   21049.34459194  .00000077  00000-0  27711-4 0  9994
2 40965  64.7773 119.0923 0192869 347.8511  11.7973 14.74668592 77564
AEROCUBE 7              
1 40966U 15058C   21049.34027308  .00000137  00000-0  34249-4 0  9994
2 40966  64.7774 117.2232 0191819 347.5066  12.1315 14.75001975 77578
ATHENOXAT 1             
1 41168U 15077C   21049.39358115  .00002297  00000-0  82517-4 0  9998
2 41168  14.9858  56.0197 0011442 315.3106  81.8142 15.15187241286696
GALASSIA                
1 41170U 15077E   21049.32328768  .00002248  00000-0  79227-4 0  9995
2 41170  14.9897  47.5770 0012240 341.2057  18.7812 15.15448655286753
VELOX-II                
1 41171U 15077F   21048.80115825  .00001808  00000-0  63629-4 0  9996
2 41171  14.9915 104.5144 0008544 212.9294 147.0494 15.12223159286178
